{"type":"FeatureCollection","features":[{"type":"Feature","id":641,"geometry":{"type":"Polygon","coordinates":[[[-97.877714891845386,30.224402255130716],[-97.878532758807722,30.223215326927122],[-97.880015851611461,30.223972995566573],[-97.883681130804817,30.218386363474],[-97.882394184709526,30.218045028510826],[-97.881436908850333,30.218375089859922],[-97.879816885232074,30.21821737872575],[-97.879041479034399,30.217854137863647],[-97.881775690184867,30.213599039555461],[-97.885747419548522,30.207238992466412],[-97.887545593931918,30.207767816603027],[-97.887946318992604,30.207261602969123],[-97.886754137754409,30.205661317732211],[-97.888660603842126,30.202685721922695],[-97.887271423809153,30.202697178547428],[-97.886619995904411,30.201642653849561],[-97.88393781104898,30.200458791461887],[-97.882607502953576,30.199436552150019],[-97.881578252317752,30.196834429812672],[-97.880028040896306,30.19626109302893],[-97.878563780761127,30.196414302896006],[-97.876028121828014,30.19767952336661],[-97.875031868664806,30.197886970925278],[-97.873577952266018,30.1976325687239],[-97.86986834796862,30.195839634457126],[-97.867787686130782,30.195618309500659],[-97.866129868772589,30.195178710024649],[-97.865629395488838,30.194353552195071],[-97.86596641801809,30.19136977602723],[-97.865418371789417,30.190362515291987],[-97.864636525724464,30.190347442213422],[-97.863585789474044,30.19064434252623],[-97.862550203061019,30.190352493705632],[-97.861194896090936,30.188287549746477],[-97.861277134850027,30.187111164510686],[-97.865870758839336,30.181319397067245],[-97.862196972118852,30.175938323061455],[-97.863136363964401,30.173937707351303],[-97.862609014080974,30.172524070735374],[-97.864608475242846,30.170818564831439],[-97.864609967654118,30.169959320574318],[-97.863439431254307,30.169527901432954],[-97.857684868978623,30.168966209527525],[-97.856496293073093,30.168125990112056],[-97.855742386412828,30.167024021088345],[-97.854565764106198,30.166140433259216],[-97.853677583043364,30.166213911316529],[-97.85327324845403,30.167746510251671],[-97.852242376902353,30.169312262560002],[-97.851553180093177,30.169751955543784],[-97.849539297341707,30.16898797218288],[-97.845201843929502,30.163285821235878],[-97.843620116171337,30.161941200907005],[-97.840426531675831,30.160429198298917],[-97.837874292070367,30.160334257087342],[-97.833361667580292,30.15943067927029],[-97.833354213218556,30.153320036875712],[-97.826042942830838,30.153393569425806],[-97.827349905791365,30.148765640683578],[-97.82313258239742,30.148193120223052],[-97.818083335070511,30.149620887173459],[-97.816518606440354,30.14951631428222],[-97.814732807751909,30.148807148704098],[-97.813479227789074,30.147337586546012],[-97.813276276625828,30.14025606021319],[-97.813638361628449,30.13958780287328],[-97.813271131275087,30.134710843071563],[-97.810654127378797,30.133082471711862],[-97.81209896934493,30.130871573002363],[-97.812434188325099,30.127259517434393],[-97.811861346046399,30.125721777782399],[-97.811696193708329,30.122044642188364],[-97.808404816664719,30.120498752622115],[-97.806456605956939,30.11742434675951],[-97.805886864679422,30.116520247043688],[-97.806244380991899,30.115632209145314],[-97.806728657978269,30.114841958728697],[-97.806946564943544,30.114486238423829],[-97.807519616098503,30.113551111427501],[-97.807859040630845,30.112802391756581],[-97.807926716524122,30.112655115409822],[-97.782137678832242,30.112790116612814],[-97.750636514503228,30.09775813687968],[-97.749750970071204,30.097337183816407],[-97.730694945503743,30.126463353254493],[-97.735095125314743,30.128599456851692],[-97.737297161186845,30.129669205612782],[-97.73736282116046,30.129701937759219],[-97.735843422047196,30.132116516312561],[-97.734991159064151,30.133491422711653],[-97.732942622133692,30.136631167621587],[-97.731572987201133,30.138776781695462],[-97.730011813956864,30.141170508354126],[-97.729412705489892,30.142086821355299],[-97.729297806863414,30.142475014928014],[-97.729931782635447,30.144701163600438],[-97.730857245025177,30.148067924724145],[-97.731290110052214,30.1496910960416],[-97.731350507783475,30.149838773465113],[-97.731421604997479,30.149974666680031],[-97.731477490355232,30.150077856966394],[-97.731539209261882,30.15020733340635],[-97.731571235324395,30.150290458019374],[-97.731659959370276,30.150620170439524],[-97.731818997417719,30.151211367006933],[-97.731923761292521,30.152094807673787],[-97.731835213480011,30.1529736880854],[-97.731674751486736,30.153704296223445],[-97.730931212432608,30.155138963326994],[-97.730489721328553,30.155990724625813],[-97.729816984777329,30.157089172395391],[-97.729656780782847,30.157350748940029],[-97.729550560838248,30.157524093061511],[-97.729846747525642,30.157391247680756],[-97.730018714088075,30.157340605574618],[-97.730174214832317,30.157303704837172],[-97.730321615009728,30.15728613036044],[-97.730478528215428,30.157289321599954],[-97.730695470624852,30.15732296758906],[-97.730872629764121,30.157372500444641],[-97.731701069517925,30.157752894570262],[-97.733534286568045,30.158610188676516],[-97.734555117847378,30.15909634543253],[-97.735913474118632,30.159743193561606],[-97.736180556763401,30.159870337496102],[-97.736328211074238,30.160488728167888],[-97.736337362291721,30.160720092067749],[-97.736310053668873,30.160971288583205],[-97.736241334817649,30.161229316525066],[-97.736113637857514,30.161579990347882],[-97.736009412918449,30.162011628545127],[-97.736006259368096,30.162221718330169],[-97.736054926085941,30.162423926296992],[-97.736172912880207,30.16264333286604],[-97.736345485921703,30.16280988729827],[-97.736839047952074,30.163115054871014],[-97.741641799638316,30.16555557759785],[-97.739032184265042,30.169606267957889],[-97.731691345879582,30.166789694203601],[-97.724094249516355,30.166356952182362],[-97.720077794395934,30.163074324131877],[-97.719151129977305,30.164459441860263],[-97.715346683719545,30.161397823841309],[-97.714617318161601,30.161707927139471],[-97.70875993127791,30.158554999633015],[-97.706197186697537,30.163293316313823],[-97.703567898516752,30.161778067642835],[-97.698868781502,30.168802728371183],[-97.697203993963385,30.166403950509853],[-97.694299341326555,30.164908466357506],[-97.692978507876177,30.166574567173686],[-97.691454529221474,30.167571072676623],[-97.689869750906837,30.167015443039478],[-97.68869708688058,30.166113147745925],[-97.687229167935882,30.165481845918535],[-97.686000088620474,30.166011374470138],[-97.685061985326101,30.167067204922201],[-97.683374086188152,30.170281443159901],[-97.682687959484227,30.1706935951206],[-97.681585722140724,30.171119953648383],[-97.680681268948206,30.170707971119413],[-97.68033513783034,30.170333270982528],[-97.679698090498547,30.170757884803784],[-97.679140514182052,30.172829936664478],[-97.678575347149021,30.173498949201548],[-97.677964214611222,30.173508470427901],[-97.677537650442389,30.173158353127125],[-97.676980542318219,30.1729707446029],[-97.675595944375686,30.17412326997793],[-97.674855166118604,30.173948983713032],[-97.673138156854748,30.173118252278297],[-97.672110053800751,30.172162409113469],[-97.671345752936531,30.170776750858373],[-97.670564202552313,30.166885895787697],[-97.672008818174731,30.163952085631763],[-97.664824803084812,30.160416169668302],[-97.66313948732504,30.16278731742927],[-97.655870383162551,30.159390965774627],[-97.65633236298649,30.15831889108113],[-97.650591659002103,30.155584302856258],[-97.650684351369591,30.155035539315396],[-97.646415349861385,30.153016212186508],[-97.651277645788753,30.145007959510178],[-97.649733407473974,30.144295933161708],[-97.652240068602566,30.140326157960956],[-97.653790000169039,30.140965994366834],[-97.65471608919124,30.140871686669566],[-97.655583269179473,30.1404115910901],[-97.663667352182543,30.128065843005061],[-97.662204975380561,30.125802733353119],[-97.660957758817744,30.123497631545149],[-97.660382726947674,30.122043758062095],[-97.660055346563823,30.120339241311495],[-97.659988238259189,30.118895980006862],[-97.660153977818354,30.11773667823428],[-97.66045599791974,30.116487193205032],[-97.660938822074144,30.11547402018974],[-97.651277735301107,30.110276530863601],[-97.650202887302171,30.110588131724789],[-97.644241709573933,30.105577913167021],[-97.636908063283798,30.111815693428792],[-97.633434656908818,30.108927819945958],[-97.627178374931916,30.114192771913409],[-97.616262529978243,30.12885928787399],[-97.615935051381641,30.129194145550873],[-97.615780486460181,30.129430257790851],[-97.615700300652563,30.129553801938876],[-97.615606403270746,30.129696094324675],[-97.615513723396276,30.129839314981012],[-97.615417076995811,30.129983353789775],[-97.615326174175308,30.130126159981021],[-97.615226053029332,30.130279328319162],[-97.61517701488242,30.130354535784704],[-97.614996289826749,30.130627539631067],[-97.61491556622444,30.13074791413592],[-97.614760952653484,30.130985648702623],[-97.614604430819966,30.131228485775896],[-97.614526631834437,30.131348200231834],[-97.614372018908171,30.131585843292328],[-97.614215490588975,30.131828770915995],[-97.614136729888926,30.131949456583108],[-97.613981077421869,30.132187077135619],[-97.613824356071731,30.13242575948615],[-97.613748490182914,30.132546776351312],[-97.613591805760962,30.13278410467117],[-97.61343434573817,30.133026831156069],[-97.613356451965018,30.133149881251342],[-97.613206222334441,30.133386443899411],[-97.613049817044768,30.133624860533228],[-97.612969480754103,30.133746053552926],[-97.612813910073285,30.133984216076254],[-97.61266161280686,30.134224163588719],[-97.611816243621092,30.133819074001654],[-97.61140298699253,30.13361916429557],[-97.610988750957745,30.133420946219992],[-97.610574196698749,30.13322299160091],[-97.610367137684875,30.133118153216603],[-97.61037473440696,30.133106403986751],[-97.610079229949307,30.132953572638183],[-97.609775006470173,30.132808134035816],[-97.609401402468237,30.132630717605831],[-97.608527342224349,30.132205955412328],[-97.608464653035654,30.132172315359391],[-97.608305494787729,30.132091865074781],[-97.608142971786151,30.132016575536198],[-97.607955011493388,30.131937766673815],[-97.607774732507437,30.131870040196624],[-97.607538580396266,30.131769990499141],[-97.607525523277047,30.13179127882109],[-97.60721132432009,30.131639034287723],[-97.606628992133054,30.131368732063066],[-97.60591583820235,30.131007297764153],[-97.605779588688975,30.130935453116617],[-97.605667745151734,30.130852307099392],[-97.605586853082514,30.130772167264773],[-97.605518556393619,30.130683544509445],[-97.605464053095403,30.130587994299898],[-97.605439374462989,30.130517085680808],[-97.604664071481892,30.131210438003055],[-97.601842945496585,30.133733700488403],[-97.600227415636937,30.135198473228879],[-97.594071948630202,30.1407408948312],[-97.592720471179632,30.141943501949573],[-97.606225410960391,30.14846146753009],[-97.599940748384626,30.158327182275116],[-97.597462854164448,30.162258531631011],[-97.596730890866212,30.163419927444906],[-97.595935632119122,30.164681571022786],[-97.595221901194577,30.165813930176054],[-97.593755360667132,30.168140247876501],[-97.591198463261335,30.172173481574035],[-97.59268818881462,30.172890011402679],[-97.598381728446583,30.175628011061367],[-97.600840170728617,30.176810092725415],[-97.604044132984242,30.178350651366937],[-97.608383118169499,30.180398867402541],[-97.613306455099575,30.18269306363478],[-97.611398837125066,30.185802123892007],[-97.611625811842927,30.185801354178317],[-97.612007125943535,30.185760372481401],[-97.61237886688933,30.185745804912251],[-97.612760905850052,30.185734434136752],[-97.613137110186827,30.185749465860916],[-97.613520241306816,30.185784135378899],[-97.613884556702814,30.185837804693758],[-97.614244602386208,30.185928741301609],[-97.614597107192012,30.186021952564278],[-97.614769788862915,30.186082919020286],[-97.615120259090659,30.186200448997536],[-97.615255708278525,30.186252051595442],[-97.61556043157951,30.186382324966054],[-97.615595033595042,30.186396594925707],[-97.617727148554735,30.182956288020609],[-97.618832970033836,30.183449329631618],[-97.620414696318832,30.184187241891479],[-97.621280761212418,30.184615715579941],[-97.628568045642723,30.188012243264271],[-97.631001489635082,30.189142671280603],[-97.631000397943154,30.189200310173899],[-97.630872201879896,30.189223230956415],[-97.630378650488581,30.189039557808474],[-97.629766059645107,30.189546472723173],[-97.628735305266133,30.189554930431612],[-97.628518157387944,30.189000264540677],[-97.62819955886944,30.188504002836787],[-97.627034397087726,30.188564652235776],[-97.626071706959493,30.188516775680508],[-97.625190141933047,30.188539369513634],[-97.624641921643857,30.188527771729657],[-97.624314235449702,30.188371136052808],[-97.624117274458399,30.18827185955384],[-97.623713831977241,30.188120297457893],[-97.623376217563873,30.188025171492285],[-97.622599478498742,30.187865703537561],[-97.621979903846949,30.188083587429546],[-97.621206565687132,30.188339539236502],[-97.621180235207191,30.188685488388003],[-97.621526953659725,30.188767097104741],[-97.621506332044618,30.188909684336316],[-97.62088971148988,30.189562203876491],[-97.620117902562669,30.189226863664583],[-97.619473262638465,30.189097699173782],[-97.618135239297231,30.189476384603505],[-97.617733083293928,30.189619090822145],[-97.617345395969835,30.189701643823945],[-97.616641963289311,30.189890202234903],[-97.616336004298432,30.190128520855321],[-97.615958357339736,30.190393108301233],[-97.615776512584574,30.190520994408256],[-97.615515045186726,30.190949931746538],[-97.615502054047226,30.191411755881916],[-97.615477787642192,30.191683573363527],[-97.615554344364256,30.191916202932063],[-97.615897154133407,30.192140768052919],[-97.616188794582015,30.192408192524613],[-97.616333019384726,30.193189630298281],[-97.615925401555529,30.193500055125941],[-97.615115005448502,30.19394495236244],[-97.614377544240654,30.194160297909214],[-97.613884930423339,30.194537671506698],[-97.61345893489424,30.195496676574983],[-97.613615677893932,30.19583288916893],[-97.613843847698959,30.195997183468773],[-97.61412094735654,30.196781446478038],[-97.614658227713662,30.197183399424613],[-97.615040667429412,30.197177803515729],[-97.615544825658205,30.196984931688107],[-97.615748164759736,30.197437631983806],[-97.615679264375572,30.197608430655194],[-97.615287807293541,30.197845924604504],[-97.614962063862023,30.198199232766402],[-97.614805214990014,30.198457226949532],[-97.615047499121715,30.198707182543341],[-97.61514637979424,30.198881271305375],[-97.615299050671922,30.199218567610608],[-97.616281717807283,30.199745468778584],[-97.616768314402037,30.200173858113413],[-97.617849789232864,30.200730455528337],[-97.618949612667251,30.20063818328136],[-97.619655522548584,30.200955709078467],[-97.619704133653102,30.201592092102846],[-97.619296775973979,30.201888728639201],[-97.618981543470539,30.20245964786513],[-97.619113673392548,30.203081289005674],[-97.619205623641619,30.203358278196234],[-97.61939562450236,30.203695097101441],[-97.619606831591682,30.204464234837904],[-97.619688284048308,30.205115031670871],[-97.619221341739205,30.205757000912882],[-97.618660151804832,30.206207115470672],[-97.617818910436384,30.206563307050438],[-97.617495439416672,30.206831487127939],[-97.616567410912737,30.207317937036095],[-97.61608448020624,30.207348927183673],[-97.615693788872278,30.207051879683007],[-97.614978505287041,30.206475607568699],[-97.615023566557284,30.206055700737139],[-97.615399277427954,30.205703362843732],[-97.615409020706622,30.205357061734667],[-97.615167094336854,30.204499283980468],[-97.614373235703567,30.204353210306763],[-97.613839633485242,30.204413346084117],[-97.613449706985222,30.204680104551294],[-97.612880787420806,30.204813750571333],[-97.612483613773975,30.204747560030988],[-97.611613664644565,30.204352334710041],[-97.611204012068058,30.204142850336876],[-97.611061862913559,30.203878503611502],[-97.611144189664913,30.20331645673398],[-97.611153950470467,30.202970066686905],[-97.610837527134336,30.201808222023139],[-97.610239492146974,30.200612777067555],[-97.609402014027538,30.199657134994389],[-97.608798785894933,30.199239951131496],[-97.608136322295792,30.199151588472244],[-97.60765402395667,30.199157836735608],[-97.607208387560362,30.199046561877683],[-97.606790130193161,30.19913944333285],[-97.606399923413747,30.199419890144092],[-97.606227291022989,30.199647307803378],[-97.605955739046223,30.199842300108529],[-97.605538822514731,30.199891170384127],[-97.604807504311424,30.199886596606447],[-97.60440779628405,30.199911014361078],[-97.604024489071506,30.199946880095897],[-97.603222995764966,30.200072817639164],[-97.601991913630059,30.200695635066662],[-97.600626961373735,30.201345902136097],[-97.600117851860531,30.201711862642998],[-97.599912722899603,30.202499581916449],[-97.599905223940638,30.20335206695394],[-97.59998529758829,30.204046883773334],[-97.599999313268583,30.204726485117483],[-97.600097349263024,30.205377649507192],[-97.599964015764726,30.205805052227475],[-97.601043160556074,30.20661566953175],[-97.60032536462468,30.207291653901457],[-97.604259299289524,30.21034921409041],[-97.604385089415999,30.210342780688023],[-97.604453904273058,30.210345239049918],[-97.604507375035283,30.210342768609848],[-97.609972821891603,30.21009095625179],[-97.61153664273661,30.211595600927176],[-97.611575012845492,30.211572322901148],[-97.611961199527585,30.211959433557816],[-97.614094537344499,30.213859292947063],[-97.615313547595392,30.213325163636011],[-97.616710044891704,30.212571544913466],[-97.617595996486799,30.211983317255566],[-97.619994679894148,30.210765802791968],[-97.620169712313981,30.210685502107719],[-97.626395936691338,30.213611251786926],[-97.626829941796203,30.212913333742854],[-97.629446537080852,30.214173893260718],[-97.627694760509272,30.216938817763623],[-97.630128460996971,30.218085769927882],[-97.631143427245149,30.216457582558718],[-97.635924877446186,30.218752565255166],[-97.624962955222543,30.236134074086873],[-97.620186298686676,30.233898260447312],[-97.620439100981542,30.233499987729815],[-97.621157045854531,30.232369008298303],[-97.622208547695621,30.230712422014395],[-97.62250699912498,30.23024220040935],[-97.621447196259098,30.229744850881143],[-97.621319059794757,30.229682220128364],[-97.61860698783083,30.228317148745592],[-97.617874450693279,30.227912158645243],[-97.617762468812586,30.227866470616263],[-97.617685483397509,30.227843813148528],[-97.617641285059804,30.227837643340539],[-97.617547451704965,30.227852436343358],[-97.617492465757593,30.227875094078929],[-97.617463200529286,30.227892249742574],[-97.617344653141032,30.228024638242417],[-97.6167844889994,30.228969085545824],[-97.616681712879597,30.229102170709886],[-97.616626172777373,30.229163074525314],[-97.616493374278491,30.229240478459975],[-97.616478238519662,30.229242864828606],[-97.615487199865044,30.230804766399618],[-97.615456642883586,30.230852936036307],[-97.611060270140854,30.228764437559288],[-97.611090313372202,30.228716079250475],[-97.610314870779263,30.228348573804031],[-97.610693794596415,30.227720099879328],[-97.604122786049587,30.224561646960524],[-97.603859267050723,30.224587433983835],[-97.603774479068335,30.225366805120707],[-97.603568048239168,30.225997672371314],[-97.603156643207541,30.226586451581522],[-97.602725341535347,30.226779747601071],[-97.598776594520004,30.22755951628843],[-97.598240479315052,30.227725474042007],[-97.597747939089416,30.227989183691367],[-97.597445717859983,30.228305957561581],[-97.597023654994118,30.228473263639955],[-97.59525268313709,30.228456801649802],[-97.594461191554174,30.228144261341068],[-97.593750006745694,30.227766660471431],[-97.59306497797327,30.227262198413353],[-97.592585375074464,30.226674058496926],[-97.592309254956589,30.226070690472547],[-97.592202484518353,30.225461110287139],[-97.592110541983743,30.224724523451425],[-97.592242560964181,30.22364992098613],[-97.592568050226419,30.222912432013619],[-97.59324657857367,30.222055261782682],[-97.593943857056942,30.221727278348858],[-97.594710778746517,30.221332291608483],[-97.595037461679183,30.220947558787156],[-97.595489680633023,30.220114864803946],[-97.595630931992375,30.219108946442915],[-97.595628811585797,30.217992310081577],[-97.595458649948,30.216832829417246],[-97.595100353516287,30.215943645806689],[-97.594749381968981,30.214799968531739],[-97.594461701914241,30.213011096160631],[-97.594586073043146,30.21180900421437],[-97.595034430578679,30.209516833465681],[-97.595108570365682,30.208891543797836],[-97.595075717231381,30.208459869833252],[-97.594742424907977,30.207884610918985],[-97.593870273330722,30.207271746568235],[-97.592385866940219,30.206678347153062],[-97.590976360702314,30.206276031295499],[-97.589721907822636,30.205974838992837],[-97.58878363663527,30.206052729145327],[-97.587533915905254,30.206378581975798],[-97.586450434611905,30.206805897203392],[-97.585295456539285,30.207368738158635],[-97.583469749653887,30.208514808264042],[-97.582013416354414,30.209756860588239],[-97.581797249074043,30.210222349511991],[-97.581753144401759,30.210975602883959],[-97.581311608646445,30.211828060255435],[-97.580469301400342,30.212495576740217],[-97.579902040207472,30.213012349905419],[-97.579188716946376,30.213506308701724],[-97.578422629777535,30.213871895503424],[-97.577332001373648,30.214152075487814],[-97.576414778083503,30.214279237782328],[-97.575218359016276,30.214312220666621],[-97.574119445152675,30.21409264122838],[-97.572698031577033,30.213709360052995],[-97.566363930884904,30.212387475771774],[-97.564834403339333,30.211845117224421],[-97.564045102203949,30.211446076601518],[-97.563393630819434,30.210961757822208],[-97.562949156610202,30.210335099199554],[-97.562667849766811,30.209525809612455],[-97.562297828410692,30.208665600559794],[-97.561667789796388,30.208220990230625],[-97.560778775518898,30.207761024407919],[-97.559310019408755,30.207464728493608],[-97.558015051582984,30.207397505218164],[-97.556825809444376,30.207577374568761],[-97.556278567323943,30.207780995878696],[-97.555580136221678,30.208147912305641],[-97.554932346030583,30.208711739825837],[-97.553656253013187,30.210349290334545],[-97.551812937000108,30.21247388382935],[-97.550464709964004,30.21425665553263],[-97.549754261602828,30.215034585913429],[-97.54857081949342,30.216184292520541],[-97.545417264845426,30.21852764446129],[-97.543605149975747,30.219416278883745],[-97.542927861797423,30.219679726196674],[-97.551621838975933,30.223666521159267],[-97.549608719793895,30.226779659008475],[-97.545852581709454,30.232635618484363],[-97.54546746765034,30.232444324557505],[-97.545288958038881,30.232281440399994],[-97.545045871314585,30.231958058810552],[-97.544847982131543,30.231609854626669],[-97.544709373389537,30.231267271059458],[-97.544464779510619,30.230823480178213],[-97.544252767615092,30.230453489891087],[-97.544080965248526,30.230058567059654],[-97.543868935608671,30.229516581266566],[-97.543857681013947,30.229391718267181],[-97.543758005136127,30.228899554082197],[-97.543627987599393,30.228432449105373],[-97.543309486886585,30.227806478760584],[-97.542580987026696,30.227150187815816],[-97.54229118319644,30.226779310320158],[-97.542186578408646,30.226655751149597],[-97.5360502523842,30.236115811296305],[-97.534512592929602,30.238492845129922],[-97.5294891355462,30.246257450603707],[-97.528716878539711,30.247428083002269],[-97.528023646679031,30.248496847225159],[-97.526337586153062,30.251077370628895],[-97.525732870104704,30.250637290818393],[-97.524967737326648,30.2501057073396],[-97.524094695128738,30.249489367615784],[-97.52333051068058,30.248950848148617],[-97.522463667869488,30.248340046163754],[-97.521659678279065,30.247773480325439],[-97.52150264677536,30.247597948627867],[-97.521330375561107,30.247328325510416],[-97.521286064206834,30.247147506372208],[-97.521241855862385,30.246966691197866],[-97.521225773095523,30.246591036369626],[-97.521323619552149,30.246232680085424],[-97.521450760736997,30.245978291672245],[-97.521324640184673,30.245854964860051],[-97.521112746599229,30.245675520792496],[-97.520659899251172,30.245258061687085],[-97.519673654646411,30.24434872580278],[-97.518461230603819,30.243230381914962],[-97.517263204625763,30.242125336830384],[-97.515740134006009,30.240720308310717],[-97.516713235273755,30.239811620132329],[-97.515242096482353,30.238498234667261],[-97.512096060448286,30.235635912322014],[-97.511860210051239,30.235420460609362],[-97.513309507200617,30.234033647465843],[-97.508885094068162,30.230469547764844],[-97.504188532968797,30.235000644840664],[-97.502763659447353,30.236375266273875],[-97.500283187788654,30.238747762941244],[-97.496305328425265,30.242303029552719],[-97.495169499598006,30.241516430281592],[-97.495389426903586,30.241247337445301],[-97.49342635432177,30.239848619799172],[-97.493391940738761,30.239972747829405],[-97.493357529745069,30.24009678480116],[-97.493221963946581,30.240377309556642],[-97.493065966207936,30.240642311907408],[-97.492914654221096,30.240878632426988],[-97.492735001912735,30.241131559553345],[-97.492507752328052,30.241430173675234],[-97.492238692601063,30.241779297657782],[-97.491992938585312,30.24208508155488],[-97.491677924643696,30.242476950538169],[-97.491236138970493,30.24302672235687],[-97.490893452779389,30.243451093207913],[-97.490656949765636,30.243742370087741],[-97.490134442643139,30.244385911099702],[-97.48978102947855,30.244821230479022],[-97.489548232263374,30.2451064524411],[-97.489316125372682,30.245389432221948],[-97.489002615298233,30.245771853152906],[-97.488759073969177,30.246068837694182],[-97.488526854246558,30.246351994163902],[-97.488202872605981,30.246736798877503],[-97.487857132061549,30.247147469226309],[-97.487293392823986,30.247816882145031],[-97.488447130898422,30.248535819434828],[-97.488388496755334,30.248839615605437],[-97.488190301566462,30.249865474357964],[-97.486322693885327,30.249001902075165],[-97.485882838510037,30.249568754725807],[-97.485335849323803,30.250286000459692],[-97.485252724039597,30.250418969597725],[-97.485020357166661,30.250790913274656],[-97.484648466457898,30.25138589458761],[-97.484391770847296,30.251796640369886],[-97.484001327195884,30.252421256588114],[-97.483607817897763,30.253050946990367],[-97.483215431152715,30.253674163253827],[-97.482835343924592,30.254274914115861],[-97.482516641342414,30.254778486551434],[-97.482158139262978,30.255344972035637],[-97.481665319130926,30.256140653585721],[-97.481233724952702,30.256837530251815],[-97.480643741076591,30.2577900480692],[-97.48030928470709,30.25832999262698],[-97.480267010271248,30.25845899509056],[-97.480283923939226,30.258607816192594],[-97.480369878484268,30.25877703459766],[-97.48047551229476,30.258927650827999],[-97.48073466515271,30.259117508823739],[-97.480851086513226,30.259173883561861],[-97.480995589751643,30.259243877791995],[-97.481391185335482,30.259435329784221],[-97.481972685876741,30.259716915942242],[-97.48295924418926,30.260228959610558],[-97.483641554516623,30.260592732600816],[-97.485155442765802,30.261391536818444],[-97.486195216359363,30.261908528408139],[-97.487375466128569,30.2624952264946],[-97.488717129038207,30.263153991508947],[-97.490210999876297,30.263886865947839],[-97.490330690970197,30.26394555980475],[-97.489606193598391,30.265051246374753],[-97.487134334991438,30.268823231346826],[-97.488542896354403,30.269497288361137],[-97.489167083484702,30.269790164245361],[-97.492576544188495,30.271389581010119],[-97.496633524633779,30.273427186837825],[-97.497843387532882,30.27404259474984],[-97.499515239467598,30.2748157521218],[-97.503037470194784,30.276509601169341],[-97.509298609367605,30.266490357002091],[-97.511184963536735,30.263601411961201],[-97.516655316910004,30.266176014474798],[-97.516809535122547,30.266117321242017],[-97.517358084687189,30.265220313220208],[-97.552641862083718,30.282365356154365],[-97.558130940540096,30.274500539767846],[-97.560046138229794,30.275392678601847],[-97.562785532169798,30.276610321118646],[-97.563293030582884,30.27684472229566],[-97.563701402694605,30.277040882710065],[-97.565071418182768,30.277692406579938],[-97.56670591104934,30.27847234915696],[-97.56768796320614,30.278942029370171],[-97.568439549128769,30.27930178435604],[-97.568629762570325,30.279394411525566],[-97.569588549696931,30.279849317225349],[-97.570826993064827,30.280439917861241],[-97.57160191790193,30.28080972163934],[-97.57237612544543,30.281179322941785],[-97.573149622721743,30.281548544873207],[-97.573922409762787,30.281917385728711],[-97.574694584902318,30.282285938746636],[-97.575465946890148,30.28265410677983],[-97.576236801858741,30.283021989257271],[-97.577080079887381,30.283424541746584],[-97.579751799889934,30.284470981534362],[-97.581067281613144,30.285128015555127],[-97.572679457189892,30.299609253475722],[-97.591832239142207,30.309172686241634],[-97.585514362359561,30.319156747873993],[-97.581446207320894,30.322701643975147],[-97.580065839740911,30.323487576127608],[-97.588277750419252,30.330414710849841],[-97.584115053700742,30.335354920096197],[-97.588777626079008,30.339526061759443],[-97.587744203709747,30.341581932081382],[-97.601649364388621,30.336408812096678],[-97.60183880244081,30.336364842448912],[-97.604334858089516,30.335444059768374],[-97.606923329912874,30.334741132958758],[-97.607281171859455,30.334697578374815],[-97.607482128149243,30.335232445383678],[-97.608062995565604,30.336879803178942],[-97.608224650188376,30.337178494490626],[-97.608229520130564,30.337186539867137],[-97.608257757249405,30.337240199278504],[-97.608287151960937,30.337293431182765],[-97.608317912726122,30.337346152339329],[-97.608349939175,30.337398267786991],[-97.608383126287336,30.337449777012001],[-97.608417476045005,30.337500680055371],[-97.608453089558211,30.337550975626932],[-97.608489865670634,30.337600666732982],[-97.608527807052312,30.337649658883102],[-97.608566804129964,30.33769804257485],[-97.608607073926606,30.337745641921813],[-97.608648401992681,30.337792541754915],[-97.608690790357926,30.33783874039716],[-97.608734243429595,30.337884151990128],[-97.608778862908395,30.337928684147709],[-97.608824439646369,30.337972514640583],[-97.608871079159826,30.338015556320759],[-97.608918681027376,30.338057715945336],[-97.608967241287743,30.338098993428986],[-97.609016866304529,30.338139482138683],[-97.609067351272742,30.338178995505533],[-97.609118796614013,30.338217626770277],[-97.609171204260079,30.338255377691713],[-97.609224366882444,30.338292151036963],[-97.609278489876601,30.338328042276608],[-97.609333369826373,30.338362955980045],[-97.6093891121984,30.338396806716716],[-97.609445611524265,30.338429679915116],[-97.609502865773891,30.338461577250094],[-97.60956087751714,30.338492407667168],[-97.609619541236967,30.338522258313066],[-97.609678964380166,30.338551043799136],[-97.609739040087476,30.338578758416592],[-97.609799769699691,30.338605495019991],[-97.610668366151316,30.33897704029356],[-97.610737940224183,30.339007393687634],[-97.610806960361685,30.339038907652899],[-97.610875433588646,30.339071403561423],[-97.610943151986049,30.339104875280519],[-97.611010321495115,30.339139328902654],[-97.611076736177282,30.339174758337595],[-97.611142394053005,30.339211163544402],[-97.611207402030644,30.339248548512803],[-97.611271655724977,30.339286819919831],[-97.611335150046926,30.33932615815559],[-97.611397894637236,30.339366291820753],[-97.611459779383154,30.339407400795015],[-97.611520907328625,30.339449485547981],[-97.611581182549884,30.33949236354751],[-97.611640600497722,30.339536125806262],[-97.611699161124193,30.339580774043441],[-97.61175686254586,30.339626304782236],[-97.611813605681263,30.339672717639797],[-97.611869494652964,30.339719834330328],[-97.611924423309375,30.339767834817994],[-97.61197849474253,30.339816717854013],[-97.612031506021935,30.339866300354721],[-97.612083559602922,30.33991667388468],[-97.61213465602458,30.339967749067718],[-97.61218468972281,30.340019614772519],[-97.612233663265499,30.340072179946972],[-97.61228036899,30.340124064377445],[-97.612326120070207,30.340176561130864],[-97.612370813558314,30.340229666304754],[-97.612414446885325,30.340283470953676],[-97.612457127546392,30.340337887970783],[-97.612631651448979,30.340564566848052],[-97.613521418205366,30.341721244272737],[-97.613716002786617,30.341974606816471],[-97.613735547015708,30.341997219024602],[-97.613755098271724,30.342019652600758],[-97.613774960558302,30.342042091051301],[-97.613794827939572,30.342064349109723],[-97.61381490780488,30.342086522282361],[-97.613835091214654,30.342108608258719],[-97.613855484638577,30.342130696966748],[-97.613875988673115,30.342152518131286],[-97.613896490150083,30.342174430346049],[-97.613917312242691,30.342196077752007],[-97.613938237342182,30.342217727338859],[-97.613959167536265,30.34223919653326],[-97.613980410742514,30.342260670643174],[-97.614001657014157,30.342281966036388],[-97.614023115770323,30.342303176543144],[-97.614044680100349,30.342324298176937],[-97.614066351985073,30.342345330979843],[-97.614088131913434,30.342366187292221],[-97.614234507708474,30.3424807335639],[-97.614437368634199,30.342617774282292],[-97.614682629542116,30.342767535314447],[-97.614922346096265,30.34290364105404],[-97.615644015144028,30.343241175037864],[-97.615506161613283,30.343462853333975],[-97.615423777205777,30.343595290291521],[-97.61541048518113,30.343616575360542],[-97.615182157587085,30.343962307024789],[-97.615066855734781,30.344136818621081],[-97.615040553620773,30.344176687213963],[-97.614792231520667,30.344552584330131],[-97.614456793859276,30.345051341870445],[-97.614199956088541,30.345467124285832],[-97.614003733348838,30.34582517431425],[-97.613873815222036,30.346086183730154],[-97.61378597638415,30.346304860715598],[-97.613716125109264,30.346527707857472],[-97.613679323504897,30.34672960142721],[-97.613652313040916,30.347200517713819],[-97.613652614603893,30.347204584432916],[-97.613652710699043,30.347208557405324],[-97.613652598855893,30.347212524248604],[-97.613652383961309,30.347216490625339],[-97.613650854164874,30.347558548161356],[-97.613651900188088,30.347580498155331],[-97.613652421940486,30.347591517820089],[-97.613653051195982,30.347602450375916],[-97.613653675951952,30.347613472225309],[-97.613654408259535,30.347624405247672],[-97.613655032967429,30.347635428815003],[-97.61365576270812,30.347646452890974],[-97.613656599951995,30.347657389857869],[-97.61365733226026,30.347668322880221],[-97.613658165004949,30.347679349140673],[-97.613659105252836,30.347690288292164],[-97.61365993799788,30.347701314552687],[-97.613660878246179,30.347712253704213],[-97.613661818494705,30.347723192855621],[-97.61366286120905,30.347734223569272],[-97.613663904461518,30.347745164905295],[-97.613664947762686,30.347756104523281],[-97.613665992996459,30.347767045901289],[-97.61366714123406,30.347777989463864],[-97.613668286953114,30.347789022362001],[-97.613669435191241,30.347799965924565],[-97.613670686481612,30.347810909953665],[-97.613671937723865,30.347821855700793],[-97.613673190947182,30.347832801489854],[-97.613673778074869,30.347837776750438],[-97.613674549741674,30.347843658409921],[-97.613675905969188,30.347854606383521],[-97.613677164865791,30.347865280687845],[-97.61367861649282,30.347876500570695],[-97.613680077705837,30.347887450770852],[-97.613681539505521,30.347898309875383],[-97.613683103722892,30.34790926226005],[-97.613684563004441,30.347920210700146],[-97.61368623472579,30.347931075975723],[-97.613687798992643,30.347942026642336],[-97.613689468733909,30.34795289187586],[-97.61369113600523,30.347963844726959],[-97.613692807728071,30.347974710002479],[-97.613694475000131,30.347985662853567],[-97.613696249775955,30.347996528595598],[-97.613698127507533,30.348007398240085],[-97.613699902284154,30.348018263982052],[-97.613701782045851,30.34802913195054],[-97.613703659827124,30.348039999877013],[-97.613705642545042,30.348050871747947],[-97.613707520327168,30.348061739674364],[-97.613709503094412,30.348072609827256],[-97.613711588866025,30.348083482164665],[-97.6137136766189,30.348094354544028],[-97.613715659339093,30.348105226414866],[-97.61371785266401,30.348116009925111],[-97.613719938389025,30.348126883980374],[-97.61372213171488,30.348137667490505],[-97.613724322474098,30.348148542054275],[-97.613726618756459,30.348159329466853],[-97.613728912520656,30.348170206215013],[-97.613731210784877,30.348180993669548],[-97.613733507068815,30.348191781082047],[-97.613735908338072,30.34820257072105],[-97.613738309656341,30.348213358641988],[-97.613740706427123,30.348224237574453],[-97.613743212682905,30.348235029439781],[-97.613745719525568,30.348245730209474],[-97.613748223801579,30.348256522032734],[-97.613750833063122,30.348267316082431],[-97.613753442325233,30.348278110132075],[-97.613756054155104,30.348288813128111],[-97.61375866341838,30.348299607177665],[-97.613761378253514,30.348310312358041],[-97.613764090570484,30.348321106873957],[-97.613766807339246,30.348331813814255],[-97.613769622661636,30.348342610514543],[-97.613772445002866,30.348353228585591],[-97.61377526225894,30.348364027045747],[-97.613778185086929,30.348374736636753],[-97.613781109896422,30.348385446269702],[-97.613784032677316,30.348396157578598],[-97.613787063059434,30.348406778342266],[-97.613789985890037,30.348417487932998],[-97.61379301365794,30.34842820146817],[-97.613796147046315,30.348438824416117],[-97.613799174815611,30.348449537951037],[-97.613802308205351,30.348460160898874],[-97.61380554653249,30.348470787791047],[-97.613808677356531,30.348481501792275],[-97.613811915685133,30.348492128684288],[-97.613815154014375,30.348502755576195],[-97.61381849791583,30.348513293598916],[-97.613821839250861,30.348523922675117],[-97.613825182567552,30.348534551793279],[-97.613828523952492,30.348545179151298],[-97.613831972793662,30.3485557211181],[-97.61383541718449,30.348566350660388],[-97.613838866075611,30.348576890908987],[-97.613842415404818,30.34858752439553],[-97.613845864297403,30.348598064643976],[-97.613849521132082,30.348608611021124],[-97.613853073030683,30.348619153453818],[-97.613856729915398,30.348629698112745],[-97.613860386800852,30.348640242771655],[-97.613864041657834,30.348650789106355],[-97.613867125431966,30.348659516641003],[-97.613871565941324,30.348671793498788],[-97.613875328401576,30.348682249288071],[-97.613879090814237,30.348692706795202],[-97.613882955694478,30.34870325586423],[-97.613886926098743,30.348713717781894],[-97.613890793499294,30.348724177515116],[-97.613894763905236,30.34873463943255],[-97.613898736879079,30.348745010296316],[-97.613902709267606,30.348755472255508],[-97.613906679724565,30.348765932454597],[-97.61391075763801,30.348776307262398],[-97.6139149360869,30.348786771871936],[-97.613919014002093,30.348797146679495],[-97.613923194971264,30.348807521953166],[-97.61392737594133,30.348817897226745],[-97.613931556912348,30.348828272500203],[-97.613935842821306,30.348838651717841],[-97.61394012877966,30.348849029217405],[-97.613944412758087,30.348859406674748],[-97.613948701236808,30.348869694838417],[-97.613953092721218,30.348879985186223],[-97.613957483668841,30.348890364911561],[-97.613961978159864,30.348900657443409],[-97.613965685921983,30.348909398207645],[-97.613970866169282,30.348921238646376],[-97.613975362643998,30.348931531219751],[-97.613978890363896,30.348939276291532],[-97.613984564172938,30.348952029681069],[-97.613989166222311,30.348962233384739],[-97.613993767686608,30.348972528183808],[-97.613998472742793,30.348982734071424],[-97.614003179780838,30.348992940000855],[-97.614007886771461,30.349003147648105],[-97.614012696816332,30.349013355761471],[-97.614017506862254,30.349023563874692],[-97.614024777910672,30.349038788701687],[-97.614142777602453,30.349285561781628],[-97.614195640126297,30.349396050126799],[-97.614207719335866,30.349421483008157],[-97.614514033153142,30.350063609051318],[-97.615673298916306,30.352490206240518],[-97.615837084266303,30.352833148868662],[-97.61641143526866,30.354052060804737],[-97.616436864679883,30.354106019765567],[-97.616461346958701,30.354160319649548],[-97.616484884084727,30.354214960499146],[-97.616507478572913,30.354269852979321],[-97.616529228983552,30.354325086848394],[-97.61654993625929,30.354380480831058],[-97.616569696443946,30.354436214021415],[-97.616588513985036,30.354492198844223],[-97.616606386899974,30.354548435257797],[-97.616623317265095,30.354604919868624],[-97.616639305517296,30.354661566735427],[-97.616654353684325,30.354718374182447],[-97.616668354208016,30.354775431039695],[-97.616681414691655,30.354832646759881],[-97.616693430628246,30.354889931459606],[-97.616704505937875,30.354947466118407],[-97.616714637192104,30.355005161275141],[-97.61672383284845,30.355062927720091],[-97.616731983950771,30.355120763145578],[-97.616739090010455,30.35517875521143],[-97.616745258486034,30.355236818524176],[-97.616750486907989,30.355295040701563],[-97.616754675265909,30.355353242566451],[-97.6167578216252,30.355411422358856],[-97.616760032422661,30.355469671722563],[-97.616761301665335,30.355527992249741],[-97.616761454140743,30.355589085964287],[-97.616760721525651,30.355644656632748],[-97.616759607616146,30.355680546774966],[-97.616758977667729,30.355702913334941],[-97.616756189284132,30.355761237300538],[-97.616752468379431,30.355819452124035],[-97.616747709423578,30.355877644958934],[-97.616742014029512,30.355935726849772],[-97.616735283096816,30.355993697416071],[-97.616727512174862,30.356051644233453],[-97.616718808674705,30.356109483626103],[-97.616709170758824,30.356167210397921],[-97.616698497832431,30.356224736466839],[-97.616686887873911,30.356282242686092],[-97.616674247495368,30.356339455472277],[-97.61666067259759,30.356396559072525],[-97.616646165160049,30.356453553528574],[-97.616630625364778,30.356510252790578],[-97.616614050548748,30.35656675134792],[-97.616596646201046,30.356623142942169],[-97.616578212007099,30.356679150005544],[-97.616558845265416,30.356735047922854],[-97.616538549122865,30.35679065454438],[-97.616517220516357,30.356845969405427],[-97.616495067451993,30.356900996911936],[-97.616471986963603,30.356955733163179],[-97.616447874055368,30.357010175934484],[-97.616422936685282,30.357064331349857],[-97.616396969409024,30.35711810394838],[-97.616370177668543,30.357171589189857],[-97.616342458497272,30.357224783173457],[-97.616313814946238,30.357277507185145],[-97.616284246527101,30.357329848884024],[-97.61625385363908,30.357381903223594],[-97.616222536367928,30.357433487589397],[-97.615629012070059,30.35839375956213],[-97.614250113775753,30.360625607114368],[-97.614235060960496,30.360650193138447],[-97.614220213586307,30.360674874624586],[-97.614205569134725,30.360699740908608],[-97.614191132739876,30.360724609883192],[-97.614176796787902,30.360749572093976],[-97.614162666277423,30.360774629767086],[-97.614148745756708,30.360799691891078],[-97.614135026226421,30.36082493705316],[-97.614121514656645,30.36085018834212],[-97.614108105559666,30.360875531191549],[-97.614094904471941,30.360900878450064],[-97.614081906307717,30.360926410506881],[-97.614069116152905,30.360951946972907],[-97.614056529459475,30.360977578859732],[-97.614044047220474,30.361003302349307],[-97.614031874027901,30.361029032390455],[-97.614019803260462,30.361054855710343],[-97.614007939965475,30.361080772817285],[-97.613996280132483,30.361106785345459],[-97.613984828358312,30.36113280056512],[-97.613973582027526,30.361158911248044],[-97.613962440689647,30.361185024156335],[-97.613951502814203,30.361211232485925],[-97.613940877411096,30.361237536829279],[-97.613930353039038,30.36126384331412],[-97.61392003609204,30.361290245304406],[-97.613909922656546,30.361316740998308],[-97.613899916195805,30.361343238959762],[-97.613890218783723,30.361369743473581],[-97.613880623846555,30.361396339548715],[-97.613871339353381,30.361423033313979],[-97.613862157873186,30.361449729262969],[-97.613853181837996,30.361476520675794],[-97.613844516833595,30.361503318683209],[-97.613835954304705,30.361530208252109],[-97.613827599788721,30.361557102231373],[-97.613819450766783,30.361584089956548],[-97.613811509709606,30.361611083810164],[-97.61380367369587,30.361638078171751],[-97.613796144165491,30.361665170139865],[-97.613788822062403,30.361692357614093],[-97.613781607522284,30.361719456260769],[-97.613774701495572,30.361746650838082],[-97.613767895916013,30.36177393865314],[-97.61376129835071,30.361801230878896],[-97.613755013799619,30.361828529741729],[-97.613748831677171,30.361855921884413],[-97.613742855636858,30.36188331667784],[-97.613737087563123,30.361910717599979],[-97.613501480442764,30.36307005340846],[-97.61343854142703,30.363379404123105],[-97.613427541231047,30.363433675825046],[-97.613415707200971,30.363491716845353],[-97.613354208994664,30.363794242636814],[-97.613341870363413,30.363855341403408],[-97.613234222832475,30.364384737738426],[-97.613232042887404,30.364395609005523],[-97.613229865461506,30.364406390936949],[-97.613228659968811,30.364412232387899],[-97.613227788488331,30.364417266106905],[-97.613225610474601,30.364428139133903],[-97.613223894884101,30.364437306385504],[-97.613221564096463,30.36444980064686],[-97.613219592124011,30.364460678043596],[-97.613218366327672,30.364467239333507],[-97.613217620199507,30.364471553722275],[-97.613215650207323,30.364482431160997],[-97.613212564366066,30.364495901283718],[-97.61321141431209,30.36450715710621],[-97.613209650409743,30.364518037196678],[-97.613208904232337,30.364522353303435],[-97.613207781455912,30.364528916778163],[-97.613206019485489,30.364539798628581],[-97.613204358603383,30.364550680903935],[-97.613202594650971,30.364561562712296],[-97.613201189514612,30.364570827656092],[-97.613200166652007,30.364577573746924],[-97.61319952606334,30.364581800984954],[-97.613197972115174,30.364592687247153],[-97.613196416185446,30.36460357346731],[-97.61319486030385,30.364614457969456],[-97.613193404875318,30.36462543571016],[-97.613192361660552,30.364632903358064],[-97.613191848944595,30.364636321930266],[-97.613190395496588,30.36464729971302],[-97.613189047589458,30.364658190344972],[-97.613187594140783,30.364669168127641],[-97.613186349254647,30.364680060944512],[-97.613185283167937,30.36468833948506],[-97.613183650918572,30.364701931544037],[-97.613182405493049,30.364712913738526],[-97.613182108456627,30.364716065279762],[-97.613181265608532,30.364723808782376],[-97.613180018201277,30.364734790934897],[-97.61317903676516,30.364743793259397],[-97.613177735911322,30.364756670358126],[-97.613176698508966,30.364767656964499],[-97.613176278099331,30.364771527877796],[-97.613175661106354,30.364778643570858],[-97.613174624242063,30.364789540799627],[-97.613173586838982,30.364800527405968],[-97.613172652457393,30.364811516197332],[-97.613171718027175,30.36482250670667],[-97.613171380287554,30.364827101361932],[-97.613170786213303,30.36483340444434],[-97.61316995480442,30.364844397138569],[-97.613169125424946,30.364855388156858],[-97.613168294064138,30.364866379133108],[-97.6131675677061,30.364877372336327],[-97.613166841347919,30.364888365539581],[-97.613166114941052,30.364899360460814],[-97.613165496153712,30.364910264837377],[-97.613164769795034,30.364921258040606],[-97.613164251412599,30.36493225737372],[-97.613163344459863,30.364949653536836],[-97.613162307791214,30.364971648767163],[-97.613161894459822,30.364982648609288],[-97.613161479098636,30.36499365012741],[-97.613161065767045,30.365004649969578],[-97.613160650454162,30.365015649769678],[-97.613160340144347,30.365026651796828],[-97.613160029834432,30.365037653823922],[-97.613159824479197,30.365048659795953],[-97.61315961719113,30.36505966400809],[-97.613159411884297,30.365070668262149],[-97.613159207115856,30.365081583138583],[-97.613159104830885,30.365092589577717],[-97.613159002545899,30.365103596016738],[-97.613158900260871,30.365114602455851],[-97.613158902930678,30.365125612839854],[-97.613158903667696,30.365136621463908],[-97.613158904404713,30.365147630087936],[-97.613159010145054,30.365158640939008],[-97.613159118405079,30.365169562454387],[-97.61315922414542,30.365180573305413],[-97.613159329885846,30.365191584156413],[-97.613159540629567,30.36520259723444],[-97.613159749343765,30.365213611988423],[-97.613160065677903,30.36522453619779],[-97.613160276373364,30.365235550993805],[-97.613160693161717,30.365246568441759],[-97.613161006927939,30.36525758370475],[-97.613161169889494,30.365262910967981],[-97.613161425697655,30.365268601194689],[-97.613161845005976,30.365279529307053],[-97.613162263775834,30.365290546796988],[-97.613162783586901,30.365301566429881],[-97.613163307898972,30.365312496769221],[-97.613163829691459,30.365323516444182],[-97.613164456487553,30.365334538346076],[-97.613164980799951,30.365345468685351],[-97.613165710618631,30.365356492772218],[-97.613166337953629,30.36536742529649],[-97.613167067772622,30.365378449383343],[-97.613167800111484,30.365389384134556],[-97.613168529930803,30.365400408221454],[-97.613169365292336,30.365411345157632],[-97.613170200115562,30.365422371471467],[-97.613171140481128,30.365433310634618],[-97.613171975891703,30.365444245852785],[-97.613172913689482,30.36545527606955],[-97.613173854104062,30.365466213514697],[-97.613174897492854,30.365477154862781],[-97.613175940343424,30.365488185588497],[-97.613176983732686,30.365499126936541],[-97.613178132125825,30.365510070511636],[-97.613179280567749,30.365521012368635],[-97.613180428961428,30.365531955943641],[-97.613181577355419,30.365542899518655],[-97.613182828820598,30.365553843560608],[-97.613184082218837,30.365564789362558],[-97.61318543863986,30.36557573734942],[-97.613186690057475,30.365586683109338],[-97.613188046527569,30.365597629378186],[-97.613189402949544,30.365608577365048],[-97.613192841642885,30.36563418806525],[-97.613228901121857,30.365879495545116],[-97.613270112074758,30.366141425176298],[-97.61325526013114,30.366144089265205],[-97.613260080217387,30.366187144658198],[-97.613277409632275,30.366303286497903],[-97.613295663180111,30.36644570597462],[-97.613307555611414,30.366588533757913],[-97.613313091495712,30.36673167712004],[-97.613312380849166,30.366874959617263],[-97.613305223857125,30.367018014299287],[-97.613293035244908,30.367151306536403],[-97.613276487558181,30.367284236443648],[-97.613255789983043,30.367416626239823],[-97.613271722408015,30.367419941467638],[-97.613243436603639,30.367559481333288],[-97.613209140742072,30.367698080639155],[-97.613100986064183,30.368097613172694],[-97.612869882996733,30.368768137331276],[-97.61285858852581,30.368810670455424],[-97.612776308071901,30.36911934263474],[-97.612187928489178,30.371328142925389],[-97.61215826127227,30.371439047087289],[-97.612148389990509,30.371445875341092],[-97.612136716982036,30.371450231235791],[-97.612113079566655,30.37145072163618],[-97.609072426257782,30.370830855230142],[-97.609436963170936,30.369486481212416],[-97.608368304244522,30.369269138737327],[-97.607576133224981,30.369052592169766],[-97.60680755756141,30.368779503300953],[-97.606067930673007,30.368451777585697],[-97.605362408680236,30.368071699735978],[-97.604695907173792,30.367641919031158],[-97.6040730720553,30.367165428049468],[-97.603175742148053,30.36855069807293],[-97.597834189754664,30.365962661874153],[-97.593328717824647,30.372810462621963],[-97.593149575583269,30.373082763323115],[-97.592389843153569,30.374240344192632],[-97.592343703481959,30.374307486807464],[-97.593528779213187,30.374871435309025],[-97.588513919099981,30.382253781528391],[-97.589108319205849,30.382736727437731],[-97.589798703829587,30.382622905862537],[-97.590415384298524,30.382853476732713],[-97.590803619238955,30.383325148914547],[-97.590472396870595,30.383750757565714],[-97.589931879566166,30.383981847427563],[-97.588501146634329,30.384058987755601],[-97.587782621242724,30.384393102755926],[-97.587136826836101,30.38529429103669],[-97.587228467443907,30.385881084571231],[-97.588253797595499,30.385738796162673],[-97.589640527230088,30.38587746954018],[-97.590514344953746,30.386315670978863],[-97.590860527363972,30.386806205598944],[-97.590894061866607,30.387241056756359],[-97.590530073386674,30.387277581405421],[-97.590061689395398,30.387072562973952],[-97.589928656223734,30.38733998072432],[-97.590077247853998,30.387700047962415],[-97.590099070325977,30.388070850572049],[-97.589934229904316,30.38832937640343],[-97.589399375269039,30.388258110168639],[-97.589262042187656,30.388585082286205],[-97.589714078996636,30.389408696202764],[-97.589213686440658,30.390152473149552],[-97.5896837041998,30.390783451978329],[-97.590505281781702,30.390933668666921],[-97.591624903348333,30.390892449608835],[-97.59201178978968,30.39160691883971],[-97.589804738393028,30.395547079539455],[-97.576417625490905,30.416589342411719],[-97.576043436031156,30.417167671737911],[-97.575925834205307,30.417558943686512],[-97.576137081515753,30.417948799781211],[-97.584089126049378,30.421788757929729],[-97.59057039021404,30.424683666882746],[-97.592418963535195,30.425627886966932],[-97.595353271614485,30.426804776475322],[-97.597488841275123,30.428199103867406],[-97.599498044512018,30.429615788578847],[-97.613272273298406,30.435910057489505],[-97.613691130594546,30.435341322379369],[-97.61508969874464,30.435832424392583],[-97.616224290363462,30.434746256407944],[-97.620075076413684,30.436443597890989],[-97.621712731690067,30.433920519506788],[-97.625719951098887,30.435396936383469],[-97.625999930923712,30.436644144444269],[-97.62794547450379,30.437270265679604],[-97.627758264692645,30.438404120886599],[-97.630355517751241,30.439741290601916],[-97.628413953814885,30.442955968694537],[-97.636989917479085,30.447202841327304],[-97.649509672356515,30.445871172954966],[-97.676796186283667,30.458879549652284],[-97.679555689833279,30.453923457925772],[-97.681021104975926,30.453657044693614],[-97.686452590295943,30.445468330753936],[-97.695376223099785,30.449603182788408],[-97.695939056088733,30.448830688630537],[-97.698378235762291,30.450122694336187],[-97.699321186159608,30.448676254036808],[-97.702264543219371,30.450050537608746],[-97.703168410652182,30.448579990643715],[-97.704065126849429,30.449053868684103],[-97.708986717141556,30.441330245618591],[-97.724467299990891,30.448554500818336],[-97.727325054864096,30.447499315082332],[-97.729958760791249,30.451257723021573],[-97.725586061870786,30.453411770420711],[-97.734333423468811,30.465199357004909],[-97.726574775453201,30.469867671963243],[-97.733436784626861,30.484730568204661],[-97.732620156174661,30.485270784724655],[-97.730846449917991,30.487198731553136],[-97.737250456307692,30.503577890246831],[-97.749373123930667,30.500009101870663],[-97.747349808391206,30.49514541326586],[-97.747911516963185,30.494214850687282],[-97.748398193328526,30.493563855653289],[-97.748615881803275,30.493248624417141],[-97.748782297100291,30.49282489242275],[-97.750064179170224,30.491750630246596],[-97.751310600087521,30.490521158712003],[-97.753139309361472,30.490198416037497],[-97.754359525256618,30.489793678875042],[-97.756251659931053,30.489471083078275],[-97.75902943361865,30.488851568080655],[-97.761657244619059,30.488173315103253],[-97.762866808810813,30.487927188359045],[-97.763902724118765,30.48779650481919],[-97.764773887686957,30.487752662405029],[-97.765593634087921,30.487765445434746],[-97.766457945703792,30.487822337453157],[-97.767274521930361,30.48795406602698],[-97.76794107036072,30.488093529181732],[-97.768680754889132,30.488295811394885],[-97.76925313952033,30.488375727825179],[-97.769715368756181,30.488370518094907],[-97.770057763501001,30.488330520994065],[-97.770690865832819,30.488168642789535],[-97.771351033560919,30.487960559299214],[-97.795730067686236,30.480281749211997],[-97.795800966386352,30.480457664023731],[-97.795899054791604,30.480700887266611],[-97.795926410185061,30.480770863394529],[-97.795951912021849,30.480841363271402],[-97.795975545379349,30.480912350505342],[-97.795997299392752,30.480983785346805],[-97.796017161077657,30.48105563316113],[-97.796035121507444,30.481127855955776],[-97.7962489428335,30.481656520931018],[-97.796512527115837,30.481644674447871],[-97.798691783507564,30.4816428589099],[-97.801927228496979,30.481669683074646],[-97.80266296321058,30.481674078407941],[-97.804269442525268,30.481687138112854],[-97.804729035517212,30.481689601601854],[-97.805274376810175,30.481683915693271],[-97.803680389959695,30.479635979676939],[-97.815031657108847,30.476125220755591],[-97.814884755084563,30.47540038006635],[-97.812790065265503,30.475337172670738],[-97.810503759039889,30.47578855976808],[-97.810434168319347,30.472984080318895],[-97.811042974276816,30.470854883879852],[-97.810111382611467,30.470826383749554],[-97.80950647940216,30.470702335400166],[-97.807913142466859,30.472857463396505],[-97.806919001060521,30.473692058891956],[-97.805741458869079,30.473960160188806],[-97.804704214127199,30.4737407728677],[-97.803853170945601,30.47298842519108],[-97.803369049608506,30.47166832997738],[-97.80221444859167,30.471928187115825],[-97.80213709250333,30.470978845405295],[-97.802932535787136,30.46969434334979],[-97.804086412376947,30.46869517951983],[-97.804505852072296,30.467625597846141],[-97.803830999115604,30.466036550381808],[-97.805963655010103,30.465299919914596],[-97.805037573248612,30.463011314037928],[-97.80543619414415,30.461399916434324],[-97.805498442995074,30.460277911810731],[-97.804901136742089,30.459557452465319],[-97.804561746914189,30.458888181486603],[-97.804052368789471,30.457092239092088],[-97.803996825861972,30.456160834331509],[-97.803472585811434,30.455193755050757],[-97.802922987814725,30.454716775516726],[-97.800456038011262,30.449179467792096],[-97.800385325574837,30.446806004231455],[-97.79889390771983,30.446811757888707],[-97.798143620217729,30.446222694071867],[-97.795912512908131,30.446910951536839],[-97.793277254732956,30.444609298888068],[-97.789396155379052,30.444675374420058],[-97.783698177401575,30.440091762544441],[-97.782542680272215,30.440771369533568],[-97.780882243351101,30.440013690924349],[-97.776991353228453,30.432014408617636],[-97.778170442258144,30.432001883439774],[-97.779745858814792,30.431332749166224],[-97.781688612342563,30.429845706467514],[-97.781247843088309,30.428453470383445],[-97.779539055661886,30.426161096742749],[-97.781339431512592,30.423425274687506],[-97.779962934731813,30.422679089257315],[-97.781535415867268,30.416710693277476],[-97.782600765024483,30.416865960636095],[-97.784219407411683,30.418827239093538],[-97.785606090950722,30.419545608841691],[-97.786155018736508,30.420446935234381],[-97.787701397792873,30.421546080809591],[-97.787872552170555,30.422619110392585],[-97.790929265526728,30.42327596846469],[-97.792208636645668,30.422938745694744],[-97.793349376919608,30.423175903377977],[-97.793768650819715,30.42231118676731],[-97.793934989061356,30.418957503664682],[-97.794688549228823,30.417847826133013],[-97.795191088901561,30.416271002365299],[-97.794699957640802,30.415354977829271],[-97.792329261483815,30.412375452159363],[-97.792139111173441,30.411113464640454],[-97.792245049892045,30.408891564731924],[-97.791902007159052,30.408291933451054],[-97.788127890707628,30.404834344894237],[-97.786620041191355,30.404450166277112],[-97.785212345998474,30.40340437827421],[-97.783866983595445,30.400691384787184],[-97.824509333965807,30.400918164537806],[-97.828027560756667,30.400445598551489],[-97.836671579732737,30.404221879424753],[-97.8363826371626,30.404831376968332],[-97.83700231150938,30.405053677860423],[-97.837367808381103,30.404454510374222],[-97.842956011155252,30.408365782256986],[-97.849916830369466,30.411718123308621],[-97.853910273257668,30.403772289888408],[-97.855309425800925,30.404891315041294],[-97.857151274136058,30.405681037142617],[-97.857978735044171,30.406026893472568],[-97.858208502958519,30.406318176360745],[-97.858496604933492,30.406555270314218],[-97.858912944574612,30.406642975566164],[-97.859004972021367,30.406675338589071],[-97.859399910244647,30.40691151332468],[-97.859764162817314,30.407134643331439],[-97.860396494696587,30.407409950069546],[-97.860733846527935,30.407582027321606],[-97.861223859515235,30.407760565203301],[-97.861484517988572,30.407866646155377],[-97.861663275375733,30.407955450004529],[-97.862200121752281,30.408345759757168],[-97.862608576479957,30.408648145262664],[-97.862994664514062,30.408978430289135],[-97.863063770062865,30.409048248090759],[-97.863079705233872,30.409064255587985],[-97.863135212882796,30.409197513518031],[-97.863223828197761,30.409407928750419],[-97.863341702895752,30.409695243210297],[-97.863466820491794,30.41000471305059],[-97.863554458128618,30.410216731885725],[-97.863664837721785,30.410491991275087],[-97.863712615585953,30.410610031997617],[-97.863790606926784,30.410776027944035],[-97.863873615824659,30.410937156118926],[-97.863926980474886,30.411032296350506],[-97.863986083287884,30.411130974530579],[-97.864047774372565,30.411242426026945],[-97.86412089515008,30.41136285022808],[-97.864143976752104,30.411396498987283],[-97.864181086215368,30.41144747291148],[-97.864198696508751,30.411471273472735],[-97.864218868314836,30.411496654887305],[-97.864231197669255,30.411511148947042],[-97.864272406476971,30.41156057732795],[-97.864333486604451,30.411638992786333],[-97.86478487306664,30.411265721420989],[-97.864850304349787,30.41117422134521],[-97.864902910458369,30.411046921853849],[-97.864941781493414,30.410919358140379],[-97.864952070961635,30.410838707796984],[-97.864936268385691,30.410707747767656],[-97.864899182685448,30.410550119920369],[-97.8643162365275,30.409650111931633],[-97.864298977496574,30.409576059988638],[-97.864263501800394,30.409461322777865],[-97.864193412099624,30.409307932829321],[-97.864108982722513,30.409177907387971],[-97.864010694188948,30.409052486646164],[-97.863868072827145,30.408918364021691],[-97.863726255269555,30.408809702063166],[-97.863590017607848,30.40873119428252],[-97.863462095572928,30.408673509702194],[-97.863337793434582,30.408628888083719],[-97.862346951254167,30.407954179753702],[-97.861957372032208,30.407451660502986],[-97.860748474807579,30.407019798447394],[-97.859378022377285,30.40654745252494],[-97.85891272492978,30.406590726040655],[-97.858525064915597,30.40650095770259],[-97.858243942554779,30.406251546478963],[-97.858178184914436,30.406165008602375],[-97.858030149403589,30.406007041495773],[-97.857897008635888,30.405897457346398],[-97.857721173479248,30.405776221785505],[-97.857556146021807,30.405696249541425],[-97.857248524819752,30.405562634774309],[-97.859494649040954,30.401880787463046],[-97.859575466830137,30.401915823561641],[-97.859162960571908,30.40257595265771],[-97.859222489287291,30.402722554983146],[-97.859072829672314,30.40298901410495],[-97.859713205396602,30.403809756627595],[-97.860122287126273,30.403871601271202],[-97.86035564261249,30.403560375492646],[-97.860553702742962,30.403618693054828],[-97.86065243332159,30.403896977870446],[-97.860829530527354,30.403981149450303],[-97.86102687837284,30.404343356538597],[-97.861295647839043,30.404372264668307],[-97.861571340276512,30.404236813987623],[-97.86168075408618,30.403952341064397],[-97.861413497026987,30.403535551171526],[-97.861460996141517,30.403132405163785],[-97.861882349711692,30.40237029517672],[-97.861497182814304,30.401554569781961],[-97.861428656217342,30.401547656226764],[-97.86117011578007,30.401485467365106],[-97.860899141265463,30.401246543458289],[-97.860920429953708,30.400866983449276],[-97.860630848319531,30.400574282814002],[-97.860037399196116,30.400420276480013],[-97.85933374788597,30.40035022674904],[-97.860527898439585,30.398423315704747],[-97.862453495948131,30.399345595925215],[-97.86313502321093,30.399665419128333],[-97.86859295288626,30.402292200348658],[-97.87071550932626,30.403326144179761],[-97.871252832644714,30.403579902386543],[-97.87137725042102,30.403061378262297],[-97.871800853861231,30.402191723523682],[-97.871969780797542,30.401866335702429],[-97.872223304785621,30.401546362312889],[-97.872292226221418,30.401468460523805],[-97.872343106619482,30.401395897175085],[-97.872392689039472,30.401288569348825],[-97.872431234918807,30.4011772395938],[-97.872444180220313,30.401020843554949],[-97.872433619300836,30.400908482578043],[-97.872389955839353,30.400783935502066],[-97.872351922479979,30.400703892904733],[-97.872288586183046,30.400648628080415],[-97.871794430270924,30.400262067373596],[-97.871724733993361,30.400195041374548],[-97.871612037194595,30.400067184224149],[-97.871508824604376,30.39991442631872],[-97.871464276155436,30.399824601489016],[-97.871415799593592,30.39971737789817],[-97.871340314982618,30.39952644157659],[-97.871277267079023,30.399374363044736],[-97.871187378888649,30.399225738441942],[-97.870954325461312,30.398919619676317],[-97.870762284962481,30.398666531057906],[-97.870606985480634,30.39846251288073],[-97.870469178070181,30.398266498415264],[-97.870409813141421,30.398145530553567],[-97.87036018954646,30.397993709219829],[-97.87024107264115,30.397506151454188],[-97.870175297899593,30.397375315807739],[-97.870106036263053,30.397205792262515],[-97.870081613961716,30.397110579409556],[-97.870065190868161,30.396971125318682],[-97.870052728758765,30.396758208006478],[-97.870040268712955,30.396549170358011],[-97.870019131031199,30.396154268377572],[-97.869845500815416,30.395702388511605],[-97.869599450142317,30.394858590580988],[-97.869537590600132,30.394660155470554],[-97.903783053392743,30.406843673302753],[-97.906037231225866,30.409105948751371],[-97.908344563918291,30.413604682755953],[-97.910151671990079,30.41916669351766],[-97.912271395930546,30.423574373048119],[-97.915332498887054,30.428956750895104],[-97.917656390888524,30.431647009337606],[-97.920358441767448,30.43383235779589],[-97.92467037353218,30.436555780155317],[-97.929567767103904,30.43849074839132],[-97.936204885324656,30.438439636698348],[-97.943404571676837,30.437395376299548],[-97.947599707745411,30.435286032342038],[-97.94942681198998,30.433823944117123],[-97.951832605765546,30.431282758538369],[-97.953661166017639,30.428705836458583],[-97.954302181445911,30.427497974141311],[-97.954978421644171,30.424980156826432],[-97.954858035803682,30.423664612015084],[-97.954390315646805,30.422416889288613],[-97.952004349759378,30.418595745081937],[-97.947706435419562,30.412842995590044],[-97.944353621646627,30.408741599655801],[-97.940846791740896,30.40371011307095],[-97.94073279924136,30.40121462607922],[-97.941178869552985,30.399711569006392],[-97.942230292608755,30.398075152550835],[-97.943001396985863,30.397294131196052],[-97.947014516834145,30.395491844054749],[-97.950084111737681,30.394390510869016],[-97.954665191222304,30.392545211034975],[-97.957342914303041,30.390485948276392],[-97.960022078299687,30.387788274797639],[-97.962207677800592,30.384946352564267],[-97.963795159676579,30.382027570734131],[-97.964362534552237,30.379825859124026],[-97.964711548854936,30.376874176171437],[-97.964735640384291,30.375397543510331],[-97.964509679045648,30.373801789214738],[-97.964284813132423,30.373009018544906],[-97.965104362300409,30.372108399276982],[-97.965722474829221,30.369417307342321],[-97.967692816787149,30.367657347894163],[-97.971241584741023,30.368379266766496],[-97.973057717451809,30.366945820162893],[-97.975873741719298,30.36589192139639],[-97.977212510168869,30.365815372161606],[-97.979248914160578,30.362308958617358],[-97.980038880458196,30.35980945317586],[-97.982329349487387,30.357924677397417],[-97.982600534763591,30.356091563455809],[-97.983331336137269,30.354558588099319],[-97.985588382496147,30.353090280318021],[-97.985989202458171,30.352865725369973],[-97.986270700555238,30.352867267693028],[-97.986584540703262,30.352770960476175],[-97.986616829853972,30.352585586504148],[-97.986592602546793,30.352345490614617],[-97.986530467597291,30.351987221910633],[-97.986503241683536,30.351772065486774],[-97.98648017523351,30.351574129365375],[-97.986380004315137,30.351359533964342],[-97.986240740444401,30.35110118206082],[-97.986127291145152,30.350675564746666],[-97.986099871444935,30.350387137063649],[-97.986274176088557,30.350077589227087],[-97.986364759995652,30.349903659140651],[-97.986511590035818,30.349555890646013],[-97.986496916960533,30.349483348042501],[-97.986405046432765,30.349355343985184],[-97.986292955479541,30.349310072884442],[-97.986176602470096,30.34920905060736],[-97.986122498248108,30.349123784988866],[-97.986039226903657,30.349039970805894],[-97.985992966541502,30.349021438430956],[-97.985874359946536,30.348978844324229],[-97.985728120929679,30.348861936925218],[-97.985633139917752,30.348712129691872],[-97.985570547542196,30.348556689519786],[-97.985552329359351,30.348356315202658],[-97.985577284891193,30.348049085899614],[-97.985617969825327,30.34777950115744],[-97.985675213631524,30.347556146523033],[-97.985757496231173,30.347300044749737],[-97.985857517053347,30.347058885063671],[-97.985933019463545,30.346927448645985],[-97.986010423773195,30.346730629557669],[-97.986162501498981,30.346526244136882],[-97.986279295766622,30.346425068004425],[-97.986606924777462,30.346141695984297],[-97.986786424778842,30.345964609144232],[-97.986922719113664,30.345870106180673],[-97.987107625320235,30.345761512371521],[-97.987195517739281,30.345676589877186],[-97.987255075333678,30.345550454289629],[-97.987256118478257,30.345374976669177],[-97.987317416235001,30.34515160448618],[-97.987329591124464,30.345018828292474],[-97.987276060835583,30.344854441226026],[-97.987297247873528,30.344817382868076],[-97.987370957509413,30.34479797919553],[-97.987376400906072,30.344736721368083],[-97.987381427446635,30.344594159412168],[-97.987371677679008,30.344490306352554],[-97.987453264987167,30.344407975614057],[-97.987565494498654,30.344310413932732],[-97.987658696726484,30.344173885874529],[-97.987736382644215,30.344076505218929],[-97.987850204943825,30.343990432257712],[-97.987958271486335,30.343892883490792],[-97.98798727694728,30.343782430590441],[-97.988031723769367,30.343751483603548],[-97.988143739026214,30.343735396214761],[-97.988233046560921,30.343677746746206],[-97.988288131174144,30.343538626971831],[-97.988287548144214,30.34342564761188],[-97.988223299635237,30.343334062659341],[-97.988130634438306,30.343183216735575],[-97.988102613577723,30.343064953635423],[-97.987923601519,30.342683163503608],[-97.987750093361058,30.342520011375697],[-97.987689073924273,30.342411160538859],[-97.987529824681374,30.342179332947321],[-97.987455077181352,30.342095947134354],[-97.987375524688019,30.342043421937149],[-97.987157976592897,30.341826227623407],[-97.987116493765456,30.34177818720817],[-97.987083512783201,30.341726964255646],[-97.987066661548496,30.341662773483769],[-97.987089672558056,30.341559248236212],[-97.987140695142045,30.341441800281785],[-97.98715104250816,30.341337142630913],[-97.987162671767379,30.341256779122471],[-97.987204784807744,30.341159108948847],[-97.98726349956938,30.341067516242276],[-97.987442491836106,30.340889518733711],[-97.987538791427298,30.340800868663653],[-97.987636087280535,30.340701230714995],[-97.987728214020819,30.340595992548767],[-97.98781632591556,30.340471912356822],[-97.987873612858408,30.340361978534656],[-97.987878620824276,30.340339963528709],[-97.987889106968353,30.340306588902877],[-97.987894480163305,30.340295227362745],[-97.987912952709166,30.340275624428493],[-97.987925147806081,30.340266103112207],[-97.987964390533065,30.340252294558304],[-97.987977873252504,30.34024108133876],[-97.987996209895613,30.340222828671465],[-97.988014426216367,30.340200965857306],[-97.988035591924216,30.340173290422737],[-97.988090481706706,30.340106351878983],[-97.988172415418816,30.340018071171148],[-97.988223260658998,30.339967750715651],[-97.988291458841985,30.339918197934718],[-97.988394278474516,30.339839412582343],[-97.988477906016669,30.339754230877254],[-97.988502931426382,30.33972184400676],[-97.988584478262666,30.339585282761632],[-97.988699643270692,30.339418026646321],[-97.988816678105252,30.339310807516735],[-97.988957090989771,30.339187593456479],[-97.989041429111353,30.339107295721565],[-97.989134581104594,30.339028243679966],[-97.989339195592365,30.338904306954856],[-97.989449123659043,30.33884974264663],[-97.989546651227499,30.338791792277256],[-97.98968865383759,30.338684397915102],[-97.989791348772741,30.338584946481753],[-97.989862735597654,30.338498276825529],[-97.989978155167307,30.338341851550993],[-97.990086824251406,30.338227711180469],[-97.990226408424974,30.33812559372867],[-97.990286087495377,30.338092667468064],[-97.990392997358484,30.338038047229663],[-97.990447227725923,30.337942491706254],[-97.990493336432706,30.337795717953153],[-97.990527637208089,30.33770692648859],[-97.990574986398059,30.33761620761851],[-97.990621389237745,30.337568782210482],[-97.99076383976481,30.337477093486342],[-97.990882365130673,30.337419616848681],[-97.991278433252887,30.337250542025032],[-97.991501006920217,30.337204890055013],[-97.991679494281797,30.33717990665517],[-97.991826924120218,30.337153004840534],[-97.992046679487771,30.337103510326482],[-97.9922302480349,30.337083402600648],[-97.992337893609033,30.337067051445683],[-97.992382038668353,30.337056847916465],[-97.992436468751265,30.337034382248557],[-97.992490340438451,30.337000627039412],[-97.992603878749478,30.336912831204863],[-97.992701727784834,30.336794340089131],[-97.992772817332423,30.33669394848172],[-97.992806973783644,30.336636733179965],[-97.992838266123769,30.336538863807885],[-97.992818097311144,30.336315446268109],[-97.992798800422079,30.33611604715194],[-97.992762609648921,30.335978506577167],[-97.992759757883036,30.335868734652692],[-97.992795713411084,30.335793056998099],[-97.993119770243808,30.335453118290573],[-97.993277793699676,30.335349622184474],[-97.993387492229601,30.335300011136788],[-97.993557476170736,30.335239411148724],[-97.993712082155525,30.335160934128336],[-97.993813173983725,30.335105935118786],[-97.993910786333501,30.335018478450856],[-97.99400065199336,30.334894426278009],[-97.994098675834366,30.334738493185636],[-97.994152558569269,30.334614056047858],[-97.994162559613059,30.33455333326204],[-97.994158953642255,30.334466104566406],[-97.994190009735064,30.334373643369894],[-97.994254645135854,30.334307691443698],[-97.99435033985624,30.334264954077476],[-97.994528489507928,30.334210727602709],[-97.994817915669898,30.334157536855805],[-97.995020812712411,30.334120814091243],[-97.995067315712319,30.334103435074333],[-97.995103076134384,30.334082883036814],[-97.995127465732892,30.334063658602133],[-97.995150642218576,30.334038725973052],[-97.995435766322345,30.333579240139454],[-97.995533821508118,30.333370340908836],[-97.995618237397395,30.333213526084446],[-97.995682588223261,30.333034689183314],[-97.995715309685025,30.332920603522179],[-97.995754789063369,30.332707928997792],[-97.995792089205139,30.332525080343583],[-97.99588720934365,30.332372883201263],[-97.996060807605716,30.33222292614883],[-97.99630931208506,30.332106819356898],[-97.996501991074311,30.332015046496629],[-97.996584192663278,30.33197097871729],[-97.996661876886691,30.331907248761944],[-97.996692416465578,30.331874599916567],[-97.996883098836378,30.331646274679766],[-97.996953869877785,30.331593065346784],[-97.997021318218486,30.33151389873753],[-97.997066009056638,30.331455251717227],[-97.997119569094153,30.331378358762084],[-97.997133862554918,30.331346496703407],[-97.997137530906429,30.331298109942253],[-97.99713298967464,30.331245063250936],[-97.99712810560284,30.331206175629465],[-97.997136482467013,30.331152370795238],[-97.997152534873948,30.331103757608361],[-97.997183962802794,30.331034402620158],[-97.99724235349926,30.330946950873241],[-97.997304858484995,30.330874280824549],[-97.997360508200273,30.330822689996257],[-97.99739691377988,30.330784013171723],[-97.997440837696445,30.330722644820295],[-97.997479610915519,30.330672190348508],[-97.997539438512874,30.330602630724115],[-97.997571750460494,30.330569833489264],[-97.99772874153345,30.330474072386824],[-97.997868446081483,30.330563869354162],[-97.997913603443806,30.330589055319244],[-97.997955566202094,30.330604435296642],[-97.997988228759283,30.330608639861925],[-97.998025466021772,30.330604355671074],[-97.998056632170929,30.330593102552584],[-97.998076749408355,30.330578492323838],[-97.998105431687065,30.330545176784433],[-97.998132336238143,30.330512282647032],[-97.998158623440119,30.330479105677473],[-97.998173074158743,30.330449322787512],[-97.998180804069904,30.33041788253286],[-97.998177092601381,30.330373512452862],[-97.998169330160707,30.330346121631475],[-97.998152274944459,30.330320184190562],[-97.998146802492286,30.330297077276882],[-97.998145635111385,30.330224960913991],[-97.998146650528568,30.330157217609262],[-97.998146693231362,30.330108132250807],[-97.998145611710441,30.330075450342569],[-97.998140646752148,30.330014183159989],[-97.998135192633427,30.329968787826509],[-97.998124670504822,30.329922219012996],[-97.998111183116535,30.329886332334482],[-97.99809210029251,30.329853953398452],[-97.998071973910029,30.329830306285135],[-97.998048581355846,30.329808406226277],[-97.99802161652795,30.32978788324165],[-97.997996834310513,30.329771822690372],[-97.997972901827382,30.329759296164376],[-97.997929989358894,30.329744527999424],[-97.997897046888156,30.329738965554803],[-97.997864991409998,30.329739736152632],[-97.997822732736566,30.329745192203831],[-97.997762652871984,30.329760700513869],[-97.997682284448899,30.329780710530002],[-97.997651183098682,30.329776444939501],[-97.997621007329514,30.329763985098658],[-97.99753760461796,30.329677288218388],[-97.997445114406716,30.32954928082237],[-97.997374466777316,30.329408408401104],[-97.997382031347712,30.329353686348398],[-97.997422297344471,30.329271588684694],[-97.997497802331694,30.329130219608992],[-97.997578109176033,30.329043978319586],[-97.997648333347385,30.329000413654583],[-97.997773224460502,30.328928610002585],[-97.997956013236092,30.328828356189199],[-97.998116453776703,30.328705947790528],[-97.998225085731647,30.328635471926205],[-97.998531426423099,30.328260730764708],[-97.998540312689741,30.327915041391677],[-97.998564144332718,30.327871533850391],[-97.998760856267992,30.327814750343499],[-97.99883293449966,30.327789084881065],[-97.999023134576888,30.327687520692994],[-97.999205108243245,30.327595007647304],[-97.999399603435577,30.327505070276967],[-97.99962507849402,30.327445923045836],[-97.999810320054394,30.327385953793399],[-98.000165684175656,30.327258881034982],[-98.000439975917971,30.32712085772609],[-98.000498115715544,30.327052166796665],[-98.000545253471429,30.32698679593674],[-98.000574575154062,30.326931297318556],[-98.000616202322917,30.326883059681968],[-98.000677295192389,30.3268384231502],[-98.000778524478235,30.326794338021898],[-98.000929341269014,30.326759996823576],[-98.001020207443972,30.326740175796452],[-98.001147127484558,30.32667454056163],[-98.001298947514883,30.326607285133178],[-98.001442751697184,30.32652300776282],[-98.001492796109574,30.326483675486696],[-98.001552009359273,30.326435126569649],[-98.001590271043398,30.326405595889316],[-98.00167202747572,30.326358087726234],[-98.001711610781229,30.326304037139362],[-98.001792338960826,30.326161318557819],[-98.001871413063043,30.32600963510782],[-98.001903110272778,30.325885874503257],[-98.001907988288011,30.325813147959394],[-98.001909815471038,30.325685867092055],[-98.002005873731576,30.325433886299923],[-98.002033846681414,30.32528777265982],[-98.00208119858469,30.325157529440286],[-98.002140822496713,30.325109077123681],[-98.002297134779212,30.324993447000118],[-98.002342329631915,30.32491802428304],[-98.002396588814847,30.324781680753649],[-98.002453270939412,30.324699969474828],[-98.002560883932389,30.324649864369672],[-98.002628616528909,30.324592987187607],[-98.002642559388605,30.324545417945924],[-98.002705879049799,30.324490356430299],[-98.002753153496371,30.324419211862551],[-98.002881616292683,30.324293871932952],[-98.002979034754617,30.324192148837344],[-98.003001380241159,30.324136792777793],[-98.002961947162163,30.324042598152595],[-98.002910686799183,30.323947195022377],[-98.002883915094458,30.323798190231688],[-98.002883377545928,30.323493202895449],[-98.002917990203713,30.323403692219333],[-98.002954411256667,30.323333974657391],[-98.00305454299243,30.323158583213342],[-98.003202506452013,30.322755418974641],[-98.00324596233952,30.322687362436469],[-98.003371512575953,30.322574781682146],[-98.003620169225982,30.322403532788353],[-98.003751532981809,30.32231298335477],[-98.00381225768075,30.322283497534269],[-98.003873123861808,30.322265384649217],[-98.00396858423828,30.322244562204535],[-98.004002610558132,30.322235255597711],[-98.004053081224598,30.322216952039536],[-98.004076114984784,30.322210603283235],[-98.00411559631894,30.322203742023799],[-98.004161073559175,30.322198342439666],[-98.004322225312308,30.32218358444873],[-98.004336849455925,30.322180962389975],[-98.004349525154836,30.32217722375913],[-98.004360149900748,30.322172182774597],[-98.004372630073448,30.322163656946405],[-98.004384011231778,30.322153216947115],[-98.004393866611977,30.322141305371392],[-98.004415943554065,30.322101372883832],[-98.004500782065492,30.32193030402944],[-98.004512959844064,30.321886855366905],[-98.004517147261637,30.321821062228025],[-98.004525411496303,30.32178033909528],[-98.004551623185918,30.321724239995721],[-98.004600822014325,30.321659446645004],[-98.00462890649969,30.321611864221094],[-98.004634320349652,30.321568562556106],[-98.004633344275646,30.321458192734614],[-98.004645490802943,30.321347071192282],[-98.004679218052331,30.321251046646161],[-98.004720685146694,30.321153179084384],[-98.004760767880825,30.321065300561607],[-98.0047646548757,30.321046513328838],[-98.004772757921771,30.320995138796619],[-98.004781177881327,30.320973817758738],[-98.004791185943745,30.320959923623171],[-98.004829386690389,30.32092416515259],[-98.004871609058611,30.320876928839024],[-98.004904305513591,30.320832226742592],[-98.004925613260227,30.32078966407445],[-98.004944341990608,30.320729009765063],[-98.004982133417499,30.320537776301371],[-98.004988141886784,30.320474092637593],[-98.00499615362466,30.320430929244907],[-98.005012068717562,30.320379064028803],[-98.005022346095558,30.320289382486248],[-98.005020796427118,30.320258766878638],[-98.005003949144239,30.320155237034228],[-98.005009526429333,30.320092178088402],[-98.00502433573287,30.320038759550002],[-98.005041401435335,30.319999640094995],[-98.005060816206054,30.319962275302647],[-98.005101325100256,30.319891189292594],[-98.005114512614611,30.319870494545246],[-98.00513110773845,30.319846523614689],[-98.005151664656665,30.319822174281445],[-98.005180534658535,30.319793735432004],[-98.005193274627246,30.319783048461428],[-98.005225255603676,30.319759356918695],[-98.005239613067772,30.31974617428218],[-98.005241978799305,30.319742968559527],[-98.005243937347572,30.319739394477988],[-98.005245180117299,30.319735267670296],[-98.005245914960426,30.319730677854899],[-98.00524565065264,30.319720117415745],[-98.005239618776116,30.319694202342635],[-98.005231540628614,30.319671227209877],[-98.005215339163129,30.31963150190429],[-98.005204774630869,30.319595218743519],[-98.005195614906725,30.319539470716915],[-98.00519203390634,30.31949392929025],[-98.005192421421341,30.319447648619132],[-98.005194495012688,30.319391924102504],[-98.005188852442757,30.319362767414081],[-98.005168593735419,30.319314487471964],[-98.005136131637542,30.319185681577373],[-98.005140373922998,30.319156432813269],[-98.005153037570736,30.319131579176034],[-98.005387374124581,30.318889507048652],[-98.005427670584268,30.318822927434358],[-98.007229844088457,30.320112991498039],[-98.006413449808718,30.316483929067804],[-98.005749094496636,30.313530284220167],[-97.99892953210626,30.31159564070667],[-97.999694256262003,30.30992533094398],[-98.000155470473686,30.308897344526951],[-98.000710301034971,30.307622658023408],[-98.001548395950195,30.30567188759904],[-98.002912676192423,30.302496334098745],[-98.003333730141634,30.301561087289191],[-98.003525990362107,30.301130666571098],[-98.001724627396612,30.300081924182603],[-98.001593083867846,30.300026204799973],[-98.000986367687148,30.299736807670008],[-97.999597973842015,30.299079295070605],[-98.000320626806257,30.297979104918596],[-98.000296452599841,30.297968288032727],[-97.998505139666051,30.297083989517922],[-97.992833718228852,30.294404849335997],[-97.985946872516379,30.291150988085686],[-97.984234253747189,30.290341735944658],[-97.97946001954827,30.288085639477703],[-97.974648796244495,30.285833283833949],[-97.973824617603753,30.286004166737335],[-97.972821506522877,30.285018607902195],[-97.971673146359691,30.283571000417432],[-97.971009270529166,30.282965590642064],[-97.970351582712681,30.282889131115208],[-97.969947126675606,30.282355359958739],[-97.969446656566134,30.282804589441174],[-97.96807469051214,30.28162658240074],[-97.967158734629521,30.281674460479152],[-97.966259650964034,30.280627245934149],[-97.96530661639035,30.280288327251775],[-97.965042049936173,30.278889199548722],[-97.96332568269311,30.279137544337097],[-97.959784464226132,30.277072946975437],[-97.958603152834328,30.276520145880305],[-97.957065437410421,30.276771625743027],[-97.955197018443826,30.276356373704047],[-97.954498332069392,30.276089767676467],[-97.952155488583088,30.27584242358191],[-97.951901272223466,30.275565834339041],[-97.949373440665155,30.276470315766268],[-97.947355777769886,30.276795220867516],[-97.945849998363627,30.276472753230188],[-97.944587929382763,30.275792263296736],[-97.943902014676269,30.275031914170601],[-97.942209502507865,30.275929178318219],[-97.941747500481412,30.276668118410893],[-97.94213294402023,30.277966515009126],[-97.943167761664157,30.279390261086419],[-97.943047733055053,30.280022344787124],[-97.942295442672034,30.280891759878326],[-97.939966245044062,30.281142795160367],[-97.935961037836833,30.278462875989369],[-97.933301528597255,30.277303164240621],[-97.92824674461751,30.273661234490501],[-97.929384454330972,30.27210787140449],[-97.914743451338609,30.264891422266018],[-97.915063307479286,30.262338775487297],[-97.90734050344598,30.258567108976166],[-97.913751779379638,30.248392254979731],[-97.902683227713126,30.243992295903176],[-97.906023688824888,30.238270193729157],[-97.889690594300106,30.231039355398579],[-97.890832511550812,30.229032825439202],[-97.884115634267843,30.225970864065395],[-97.883887122104156,30.225848833048843],[-97.883400017139991,30.22549627610033],[-97.88326785726187,30.225418134931001],[-97.882392574995194,30.225040731861061],[-97.882141982327752,30.225408231366398],[-97.880781236648389,30.224876163993446],[-97.880093929631414,30.224752468133225],[-97.879935128000213,30.22498294540441],[-97.878958798633448,30.224841253223815],[-97.877714891845386,30.224402255130716]]]},"properties":{"OBJECTID":641,"SERVICE_AREA":"Austin Energy Service Area"}}]}